GLOBALSTAR M068 [-]     
1 32266U 07048D   24083.80504025 -.00000099  00000+0  29949-4 0  9994
2 32266  51.9872 235.1240 0000860 167.5887 339.3194 12.62782248760654
GLOBALSTAR M079 [+]     
1 37188U 10054A   24083.40501444 -.00000092  00000+0  67392-4 0  9998
2 37188  52.0039  72.0371 0000534  62.6916 101.3325 12.62267489619525
GLOBALSTAR M074 [+]     
1 37189U 10054B   24083.43167291 -.00000093  00000+0  59974-4 0  9998
2 37189  52.0013  71.3488 0000353  96.4094  68.2935 12.62266331620132
GLOBALSTAR M076 [+]     
1 37190U 10054C   24083.37517168 -.00000088  00000+0  90500-4 0  9999
2 37190  52.0027  71.6513 0000881  92.3004  55.4533 12.62275731619845
GLOBALSTAR M077 [+]     
1 37191U 10054D   24083.89171068 -.00000102  00000+0  11458-4 0  9994
2 37191  52.0098  26.8064 0000496  84.2827 311.3805 12.62270313620289
GLOBALSTAR M075 [+]     
1 37192U 10054E   24083.78953767 -.00000076  00000+0  15728-3 0  9990
2 37192  51.9930 112.8997 0000354  85.4500  85.9155 12.62271936619123
GLOBALSTAR M073 [+]     
1 37193U 10054F   24083.31289670 -.00000096  00000+0  44445-4 0  9996
2 37193  52.0085  27.8224 0000607  77.8679  87.4912 12.62262623620895
GLOBALSTAR M083 [+]     
1 37739U 11033A   24083.86108760 -.00000069  00000+0  19237-3 0  9990
2 37739  51.9880 335.5046 0000555  59.9871  17.7053 12.62266934589985
GLOBALSTAR M088 [+]     
1 37740U 11033B   24083.93477862 -.00000099  00000+0  24066-4 0  9992
2 37740  51.9718 241.1477 0000698  85.9532  87.3526 12.62266445585530
GLOBALSTAR M091 [+]     
1 37741U 11033C   24083.53151149 -.00000110  00000+0 -32650-4 0  9999
2 37741  51.9986 205.1239 0000547  85.9449 354.2969 12.62272577586276
GLOBALSTAR M085 [+]     
1 37742U 11033D   24083.61259274 -.00000067  00000+0  20409-3 0  9995
2 37742  51.9855 156.3173 0000340  87.7050  60.2718 12.62268967586796
GLOBALSTAR M081 [+]     
1 37743U 11033E   24083.93360132 -.00000057  00000+0  25872-3 0  9995
2 37743  51.9958 157.8493 0000487  79.1169 328.7996 12.62263438586989
GLOBALSTAR M089 [+]     
1 37744U 11033F   24083.84188455 -.00000073  00000+0  17069-3 0  9999
2 37744  51.9916 112.4409 0000792 105.9337  64.1968 12.62272594587818
GLOBALSTAR M084 [+]     
1 38040U 11080A   24083.91451529 -.00000060  00000+0  24277-3 0  9999
2 38040  52.0035 339.2684 0000842  96.1546 344.6477 12.62272540565802
GLOBALSTAR M080 [+]     
1 38041U 11080B   24083.88782057 -.00000066  00000+0  21269-3 0  9993
2 38041  52.0090 340.7993 0001052  91.2313 347.2668 12.62270210565922
GLOBALSTAR M082 [+]     
1 38042U 11080C   24083.88676028 -.00000065  00000+0  21672-3 0  9991
2 38042  52.0074 296.2023 0000269  47.2894 326.4691 12.62267425566636
GLOBALSTAR M092 [+]     
1 38043U 11080D   24083.86499062 -.00000093  00000+0  62309-4 0  9995
2 38043  52.0108  26.6173 0000481 105.9415 288.8041 12.62277061565088
GLOBALSTAR M090 [+]     
1 38044U 11080E   24083.83370458 -.00000068  00000+0  20138-3 0  9995
2 38044  51.9882 290.7509 0000563  77.3205 296.3364 12.62267664566747
GLOBALSTAR M086 [+]     
1 38045U 11080F   24083.87963184 -.00000071  00000+0  18127-3 0  9993
2 38045  51.9894 291.1277 0001585  62.5513  39.3389 12.62268693566690
GLOBALSTAR M097 [+]     
1 39072U 13005A   24083.72534953 -.00000111  00000+0 -37800-4 0  9991
2 39072  52.0037 205.6850 0000646  82.0607 278.0333 12.62261806513925
GLOBALSTAR M093 [+]     
1 39073U 13005B   24083.46122140 -.00000098  00000+0  29674-4 0  9997
2 39073  51.9801 200.5124 0000608  76.0116 284.0818 12.62262386513847
GLOBALSTAR M094 [+]     
1 39074U 13005C   24083.77800856 -.00000075  00000+0  16155-3 0  9993
2 39074  51.9944 113.4799 0000362  72.0259 288.0647 12.62263975515499
GLOBALSTAR M096 [+]     
1 39075U 13005D   24083.39517363 -.00000123  00000+0 -10788-3 0  9991
2 39075  52.0073 162.8082 0000369  76.2190 283.8718 12.62263700514368
GLOBALSTAR M078 [+]     
1 39076U 13005E   24083.84443953 -.00000100  00000+0  23321-4 0  9997
2 39076  51.9859 246.5660 0000312 236.4221 123.6616 12.62261571513040
GLOBALSTAR M095 [+]     
1 39077U 13005F   24083.63271208 -.00000082  00000+0  12117-3 0  9996
2 39077  51.9785 244.6274 0000224  37.5631 322.5251 12.62276393512879
GLOBALSTAR M087 [+]     
1 52888U 22064A   24083.84990525 -.00000055  00000+0  13864-3 0  9999
2 52888  51.9746 145.9476 0009825 146.2458 213.9070 13.37568309 86107
